OBJECT_NAME,OBJECT_ID,EPOCH,MEAN_MOTION,ECCENTRICITY,INCLINATION,RA_OF_ASC_NODE,ARG_OF_PERICENTER,MEAN_ANOMALY,EPHEMERIS_TYPE,CLASSIFICATION_TYPE,NORAD_CAT_ID,ELEMENT_SET_NO,REV_AT_EPOCH,BSTAR,MEAN_MOTION_DOT,MEAN_MOTION_DDOT
STARLINK-32550,2024-222T,2026-07-13T06:44:21.666048,15.27585340,.0001052,42.9997,147.1552,294.8860,65.1882,0,U,62131,999,9200,.64065063E-3,.17412E-3,0
STARLINK-32507,2024-222U,2026-07-13T05:32:11.190912,15.27588096,.00029043,42.9999,146.7776,38.3531,321.7527,0,U,62132,999,9180,.38944186E-3,.10473E-3,0
STARLINK-32245,2024-222V,2026-07-13T00:07:21.109152,15.27593263,.00010468,42.9977,148.5200,184.6131,175.4711,0,U,62133,999,9207,.38940299E-3,.10473E-3,0
STARLINK-32546,2024-222W,2026-07-13T05:03:28.335168,15.27590382,.00014728,42.9992,144.0281,258.2873,101.7814,0,U,62134,999,9187,.3615079E-3,.9702E-4,0
STARLINK-32545,2024-222X,2026-07-13T07:00:58.549248,15.27598700,.00013758,43.0015,147.2387,293.0357,67.0350,0,U,62135,999,9200,-.73581004E-4,-.2288E-4,0
STARLINK-32554,2024-222Y,2026-07-13T06:09:10.406016,15.27593522,.00021094,43.0050,146.9763,289.4014,70.6609,0,U,62136,999,9200,.34437743E-3,.923E-4,0
STARLINK-32570,2024-222Z,2026-07-13T06:18:25.521696,15.27594044,.00021635,43.0030,147.0167,268.7392,91.3212,0,U,62137,999,9210,.41979263E-3,.11312E-3,0
KONDOR-FKA NO. 2,2024-223A,2026-07-13T07:39:00.973728,15.19699606,.00017746,97.4404,37.3886,89.8561,270.2877,0,U,62138,999,8967,.10208786E-3,.2111E-4,0
STARLINK-32529,2024-224A,2026-07-13T06:31:13.472544,15.27550737,.00017776,42.9997,169.1235,279.1815,80.8836,0,U,62139,999,9162,-.15146226E-3,-.4424E-4,0
STARLINK-32464,2024-224B,2026-07-13T00:25:42.163968,15.27592622,.00016135,42.9982,170.6340,280.6135,79.4535,0,U,62140,999,9158,.38247988E-3,.10282E-3,0
STARLINK-32482,2024-224C,2026-07-11T23:57:49.552416,15.27584896,.00008169,42.9986,175.8853,256.9865,103.0896,0,U,62141,999,9133,.45009078E-3,.12146E-3,0
STARLINK-32454,2024-224D,2026-07-13T07:14:12.798528,15.27589626,.00013203,42.9992,176.2427,277.0220,83.0481,0,U,62142,999,9160,.2869276E-3,.7644E-4,0
STARLINK-32485,2024-224E,2026-07-13T07:11:00.271680,15.27589315,.00015251,43.0009,171.9049,271.7395,88.3282,0,U,62143,999,9122,.50138028E-3,.13564E-3,0
STARLINK-32388,2024-224F,2026-07-13T07:08:40.100640,15.27585954,.00010464,42.9987,176.2139,269.5726,90.5006,0,U,62144,999,9160,.30799434E-3,.8224E-4,0
STARLINK-32374,2024-224G,2026-07-12T00:29:16.705536,15.27585031,.00013804,42.9983,176.0465,267.1085,92.9609,0,U,62145,999,9149,.4198958E-3,.11312E-3,0
STARLINK-32384,2024-224H,2026-07-13T00:03:28.639584,15.27592048,.00015698,42.9995,170.5196,272.1412,87.9260,0,U,62146,999,9164,.33739055E-3,.9037E-4,0
STARLINK-32295,2024-224J,2026-07-13T00:18:16.653600,15.27584448,.00017266,42.9990,170.5941,279.9325,80.1332,0,U,62147,999,9153,.20989766E-3,.5519E-4,0
STARLINK-32479,2024-224K,2026-07-13T06:05:17.710080,15.27585764,.00015042,43.0018,168.9699,273.1216,86.9463,0,U,62148,999,9162,.19956307E-3,.5234E-4,0
STARLINK-32468,2024-224L,2026-07-13T06:03:26.366400,15.27615562,.00020387,43.0026,168.9584,292.7171,67.3465,0,U,62149,999,9152,.41916112E-3,.11302E-3,0
STARLINK-32629,2024-224M,2026-07-13T06:58:44.378688,15.27592511,.00020699,43.0014,168.3787,266.9665,93.0950,0,U,62150,999,9169,.43456321E-3,.1172E-3,0
STARLINK-32644,2024-224N,2026-07-13T06:33:02.958624,15.27588642,.00013161,42.9998,169.1046,270.2659,89.8042,0,U,62151,999,9168,.31834102E-3,.851E-4,0
STARLINK-32623,2024-224P,2026-07-13T07:25:48.048960,15.27587788,.00011814,43.0001,171.9816,273.1477,86.9239,0,U,62152,999,9159,.26574433E-3,.7059E-4,0
STARLINK-32639,2024-224Q,2026-07-13T06:29:20.082912,15.27577301,.00013675,42.9968,169.0868,283.7958,76.2741,0,U,62153,999,9152,.21137519E-3,.5559E-4,0
STARLINK-32625,2024-224R,2026-07-13T06:40:28.878528,15.27574250,.00015099,43.0006,169.1458,284.6229,75.4455,0,U,62154,999,9157,.65921844E-3,.17919E-3,0
STARLINK-32635,2024-224S,2026-07-13T07:19:45.619968,15.27591433,.00021786,43.0026,176.2707,276.4177,83.6427,0,U,62155,999,9144,.31351598E-3,.8378E-4,0
STARLINK-32532,2024-224T,2026-07-13T07:26:29.654880,15.27600733,.00019026,43.0032,168.5293,278.4978,81.5658,0,U,62156,999,9153,.36696084E-3,.9856E-4,0
STARLINK-32503,2024-224U,2026-07-13T07:03:06.914592,15.27580570,.00014232,42.9998,176.1840,261.9897,98.0794,0,U,62157,999,9117,.32408184E-3,.8667E-4,0
STARLINK-32508,2024-224V,2026-07-12T22:18:13.191840,15.27598560,.00009955,42.9991,170.8304,304.5984,55.4774,0,U,62158,999,9163,.42617716E-3,.1149E-3,0
STARLINK-32524,2024-224W,2026-07-12T23:51:40.527648,15.27591548,.00011921,43.0012,173.9178,261.8011,98.2706,0,U,62159,999,9144,.37745441E-3,.10143E-3,0
STARLINK-32484,2024-224X,2026-07-13T00:21:58.662720,15.27590557,.00012089,42.9988,170.6088,264.8751,95.1962,0,U,62160,999,9164,.40518502E-3,.10908E-3,0
STARLINK-32497,2024-224Y,2026-07-12T23:40:34.798368,15.27589305,.00017586,43.0029,173.8639,293.1911,66.8756,0,U,62161,999,9159,.48971662E-3,.13242E-3,0
STARLINK-32526,2024-224Z,2026-07-12T23:46:07.752864,15.27585907,.00015868,43.0007,173.8899,287.1200,72.9478,0,U,62162,999,9159,.35163367E-3,.9428E-4,0
STARLINK-32523,2024-225C,2026-07-12T11:14:15.674208,14.98339276,.00041997,69.9989,209.9204,266.5557,93.5122,0,U,62165,999,8856,.22386891E-3,.258E-4,0
STARLINK-32551,2024-225D,2026-07-13T07:27:55.885536,14.98341019,.00033791,70.0004,207.6540,267.0707,93.0065,0,U,62166,999,8869,.66638232E-4,.702E-5,0
STARLINK-32506,2024-225E,2026-07-12T13:14:25.527840,14.98336060,.0003935,70.0000,209.8113,267.7174,92.3535,0,U,62167,999,8857,.18842E-3,.2156E-4,0
STARLINK-32562,2024-225F,2026-07-12T23:45:18.349344,14.98340735,.00038133,69.9981,208.5296,266.9586,93.1137,0,U,62168,999,8864,.25108933E-3,.2905E-4,0
STARLINK-32558,2024-225G,2026-07-12T11:08:13.132032,14.98351619,.00035543,69.9979,209.9038,263.5461,96.5293,0,U,62169,999,8856,.84608152E-4,.917E-5,0
STARLINK-32538,2024-225H,2026-07-13T00:15:20.481408,14.98336212,.00040793,69.9995,208.6051,260.9342,99.1356,0,U,62170,999,8864,.14098724E-3,.159E-4,0
STARLINK-32257,2024-225J,2026-07-12T13:32:26.282112,14.98339435,.0003998,69.9989,209.4573,265.8678,94.2024,0,U,62171,999,8858,.18259E-3,.2087E-4,0
STARLINK-32407,2024-225K,2026-07-13T07:33:55.668096,14.98365377,.00040834,69.9993,207.6582,264.9993,95.0700,0,U,62172,999,8869,.56494E-3,.6661E-4,0
STARLINK-32575,2024-225L,2026-07-12T22:59:48.107616,14.98337646,.00046686,70.0015,198.4177,260.5622,99.5010,0,U,62173,999,8889,.16571393E-3,.1885E-4,0
STARLINK-32552,2024-225M,2026-07-13T07:15:55.287072,14.98340965,.00039393,69.9995,207.6209,264.8259,95.2450,0,U,62174,999,8869,.19329002E-3,.2215E-4,0
STARLINK-32534,2024-225N,2026-07-12T11:32:17.456640,14.98339880,.00036722,69.9993,209.9653,267.8130,92.2609,0,U,62175,999,8856,.22315961E-3,.2571E-4,0
STARLINK-32516,2024-225P,2026-07-13T00:09:21.272544,14.98341208,.00037052,70.0000,208.5872,251.0431,109.0327,0,U,62176,999,8864,.21217361E-3,.244E-4,0
STARLINK-32542,2024-225Q,2026-07-12T11:02:13.545600,14.98338404,.00042451,70.0002,209.8905,261.3026,98.7653,0,U,62177,999,8856,.16533307E-3,.1881E-4,0
STARLINK-32600,2024-225R,2026-07-12T11:22:50.077344,14.98373109,.00040588,69.9991,199.9351,264.3267,95.7429,0,U,62178,999,8881,.63906919E-3,.7549E-4,0
STARLINK-32584,2024-225S,2026-07-13T07:39:58.559328,14.98330390,.00035287,69.9996,207.6116,265.4115,94.6641,0,U,62179,999,8869,.22967601E-3,.2649E-4,0
STARLINK-32587,2024-225T,2026-07-13T07:21:54.993600,14.98344282,.0004202,70.0002,207.5452,259.8321,100.2364,0,U,62180,999,8869,.22849631E-3,.2635E-4,0
STARLINK-32602,2024-225U,2026-07-12T23:47:54.544992,14.98340471,.00034335,69.9992,198.5342,266.5254,93.5512,0,U,62181,999,8889,.21016556E-3,.2416E-4,0
STARLINK-32565,2024-225V,2026-07-13T02:09:29.132928,14.98343017,.0003253,69.9995,208.0830,268.9677,91.1109,0,U,62182,999,8866,.24468752E-3,.2829E-4,0
STARLINK-32589,2024-225W,2026-07-12T13:20:05.585280,14.98442042,.0004782,70.0006,209.8258,276.1136,83.9478,0,U,62183,999,8857,-.45353E-2,-.53958E-3,0
STARLINK-32581,2024-225X,2026-07-13T07:24:31.158144,14.98336554,.00038618,69.9998,197.6329,263.0348,97.0372,0,U,62184,999,8894,.20181908E-3,.2316E-4,0
2024-226A,2024-226A,2026-07-13T06:55:58.224576,13.60154231,.00564001,50.0041,165.7665,231.9359,127.6430,0,U,62185,999,8026,.39603047E-4,-.104E-5,0
2024-226B,2024-226B,2026-07-13T06:42:08.672256,13.41503364,.00121316,50.0024,233.2459,157.5055,202.6356,0,U,62186,999,7921,.99980579E-4,-.72E-6,0
TJS-13,2024-227A,2026-07-07T20:07:07.497408,2.00595769,.69629881,63.7886,36.3970,269.4722,17.4174,0,U,62188,999,1166,0,.35E-5,0
HAISHAO-1,2024-228A,2026-07-13T06:54:12.718944,15.65196180,.00012856,42.9777,209.2527,44.2000,315.8967,0,U,62190,999,9167,.18995677E-3,.18971E-3,0
STARLINK-32686,2024-229A,2026-07-12T15:29:03.452640,15.27589562,.0001736,43.0016,281.4147,264.3729,95.6925,0,U,62192,999,8971,.29670896E-3,.7914E-4,0
STARLINK-32688,2024-229B,2026-07-13T07:35:49.285824,15.27590990,.00014014,42.9975,281.3054,222.5499,137.5244,0,U,62193,999,8977,.34399237E-3,.9219E-4,0
STARLINK-32684,2024-229C,2026-07-13T06:58:48.936288,15.27595353,.00011171,42.9988,281.1107,218.7613,141.3159,0,U,62194,999,9095,.40415891E-3,.10881E-3,0
STARLINK-32672,2024-229D,2026-07-12T07:46:49.766304,15.27579353,.00018235,43.0023,286.7605,272.9070,87.1573,0,U,62195,999,8962,.63318716E-3,.17202E-3,0
STARLINK-32682,2024-229E,2026-07-13T05:26:55.715136,15.27599103,.00020129,42.9973,249.0756,279.5378,80.5246,0,U,62196,999,9013,.62762312E-3,.17059E-3,0
STARLINK-32663,2024-229F,2026-07-13T06:33:07.410816,15.27584408,.00014146,42.9987,281.8340,267.3554,92.7136,0,U,62197,999,8976,.29924061E-3,.7982E-4,0
STARLINK-32640,2024-229G,2026-07-13T07:08:04.342272,15.27586941,.00018313,43.0034,281.1625,275.5171,84.5472,0,U,62198,999,8977,.23238314E-3,.6139E-4,0
STARLINK-32653,2024-229H,2026-07-13T06:04:54.237792,15.27586567,.00018931,42.9998,274.7237,279.5260,80.5378,0,U,62199,999,8984,.30299406E-3,.8086E-4,0
